/**
 * Real ISS (NORAD 25544) gp_history rows fetched from Space-Track on
 * 2026-07-19, spanning 2026-06-19 → 2026-07-19: 99 rows, 83 unique epochs
 * (duplicates are genuine upstream re-releases). The series contains a real
 * reboost between 2026-07-01 and 2026-07-04 (+1.83 km semi-major axis) —
 * ground truth for the maneuver detector. Raw upstream shape: every value a
 * string, trimmed to the fields gpHistorySchema parses.
 */
export const ISS_GP_HISTORY_RAW: Record<string, string | null>[] = [
	{
		NORAD_CAT_ID: "25544",
		OBJECT_NAME: "ISS (ZARYA)",
		OBJECT_ID: "1998-067A",
		EPOCH: "2026-06-19T20:01:06.424896",
		MEAN_MOTION: "15.49322400",
		ECCENTRICITY: "0.00045710",
		INCLINATION: "51.6327",
		RA_OF_ASC_NODE: "286.9925",
		ARG_OF_PERICENTER: "206.3214",
		MEAN_ANOMALY: "153.7542",
		BSTAR: "0.00016559000000",
		REV_AT_EPOCH: "57216",
	},
	{
		NORAD_CAT_ID: "25544",
		OBJECT_NAME: "ISS (ZARYA)",
		OBJECT_ID: "1998-067A",
		EPOCH: "2026-06-19T20:01:06.425760",
		MEAN_MOTION: "15.49322400",
		ECCENTRICITY: "0.00045710",
		INCLINATION: "51.6328",
		RA_OF_ASC_NODE: "286.9925",
		ARG_OF_PERICENTER: "206.3215",
		MEAN_ANOMALY: "153.7542",
		BSTAR: "0.00016558772000",
		REV_AT_EPOCH: "57216",
	},
	{
		NORAD_CAT_ID: "25544",
		OBJECT_NAME: "ISS (ZARYA)",
		OBJECT_ID: "1998-067A",
		EPOCH: "2026-06-20T03:45:31.104864",
		MEAN_MOTION: "15.49327998",
		ECCENTRICITY: "0.00045551",
		INCLINATION: "51.6329",
		RA_OF_ASC_NODE: "285.3962",
		ARG_OF_PERICENTER: "207.7610",
		MEAN_ANOMALY: "152.3136",
		BSTAR: "0.00016345057000",
		REV_AT_EPOCH: "57221",
	},
	{
		NORAD_CAT_ID: "25544",
		OBJECT_NAME: "ISS (ZARYA)",
		OBJECT_ID: "1998-067A",
		EPOCH: "2026-06-20T09:57:02.757600",
		MEAN_MOTION: "15.49333088",
		ECCENTRICITY: "0.00045570",
		INCLINATION: "51.6327",
		RA_OF_ASC_NODE: "284.1189",
		ARG_OF_PERICENTER: "208.5194",
		MEAN_ANOMALY: "151.5545",
		BSTAR: "0.00016600000000",
		REV_AT_EPOCH: "57225",
	},
	{
		NORAD_CAT_ID: "25544",
		OBJECT_NAME: "ISS (ZARYA)",
		OBJECT_ID: "1998-067A",
		EPOCH: "2026-06-21T13:48:54.457920",
		MEAN_MOTION: "15.49353754",
		ECCENTRICITY: "0.00045110",
		INCLINATION: "51.6328",
		RA_OF_ASC_NODE: "278.3719",
		ARG_OF_PERICENTER: "213.7981",
		MEAN_ANOMALY: "146.2721",
		BSTAR: "0.00016958000000",
		REV_AT_EPOCH: "57243",
	},
	{
		NORAD_CAT_ID: "25544",
		OBJECT_NAME: "ISS (ZARYA)",
		OBJECT_ID: "1998-067A",
		EPOCH: "2026-06-21T18:27:32.932224",
		MEAN_MOTION: "15.49357580",
		ECCENTRICITY: "0.00044990",
		INCLINATION: "51.6326",
		RA_OF_ASC_NODE: "277.4139",
		ARG_OF_PERICENTER: "214.6152",
		MEAN_ANOMALY: "145.4544",
		BSTAR: "0.00017028000000",
		REV_AT_EPOCH: "57246",
	},
	{
		NORAD_CAT_ID: "25544",
		OBJECT_NAME: "ISS (ZARYA)",
		OBJECT_ID: "1998-067A",
		EPOCH: "2026-06-22T17:40:44.812992",
		MEAN_MOTION: "15.49373286",
		ECCENTRICITY: "0.00044556",
		INCLINATION: "51.6325",
		RA_OF_ASC_NODE: "272.6245",
		ARG_OF_PERICENTER: "218.9710",
		MEAN_ANOMALY: "141.0958",
		BSTAR: "0.00015394615000",
		REV_AT_EPOCH: "57261",
	},
	{
		NORAD_CAT_ID: "25544",
		OBJECT_NAME: "ISS (ZARYA)",
		OBJECT_ID: "1998-067A",
		EPOCH: "2026-06-23T16:53:55.777920",
		MEAN_MOTION: "15.49389560",
		ECCENTRICITY: "0.00044483",
		INCLINATION: "51.6324",
		RA_OF_ASC_NODE: "267.8348",
		ARG_OF_PERICENTER: "222.5563",
		MEAN_ANOMALY: "137.5081",
		BSTAR: "0.00014592391000",
		REV_AT_EPOCH: "57276",
	},
	{
		NORAD_CAT_ID: "25544",
		OBJECT_NAME: "ISS (ZARYA)",
		OBJECT_ID: "1998-067A",
		EPOCH: "2026-06-24T03:44:04.640064",
		MEAN_MOTION: "15.49396189",
		ECCENTRICITY: "0.00044270",
		INCLINATION: "51.6326",
		RA_OF_ASC_NODE: "265.6000",
		ARG_OF_PERICENTER: "224.4953",
		MEAN_ANOMALY: "135.5681",
		BSTAR: "0.00013974885000",
		REV_AT_EPOCH: "57283",
	},
	{
		NORAD_CAT_ID: "25544",
		OBJECT_NAME: "ISS (ZARYA)",
		OBJECT_ID: "1998-067A",
		EPOCH: "2026-06-25T04:30:07.020000",
		MEAN_MOTION: "15.49415960",
		ECCENTRICITY: "0.00044086",
		INCLINATION: "51.6326",
		RA_OF_ASC_NODE: "260.4913",
		ARG_OF_PERICENTER: "228.8642",
		MEAN_ANOMALY: "131.1966",
		BSTAR: "0.00017725469000",
		REV_AT_EPOCH: "57299",
	},
	{
		NORAD_CAT_ID: "25544",
		OBJECT_NAME: "ISS (ZARYA)",
		OBJECT_ID: "1998-067A",
		EPOCH: "2026-06-25T04:30:07.020000",
		MEAN_MOTION: "15.49415960",
		ECCENTRICITY: "0.00044090",
		INCLINATION: "51.6326",
		RA_OF_ASC_NODE: "260.4913",
		ARG_OF_PERICENTER: "228.8642",
		MEAN_ANOMALY: "131.1966",
		BSTAR: "0.00017725000000",
		REV_AT_EPOCH: "57299",
	},
	{
		NORAD_CAT_ID: "25544",
		OBJECT_NAME: "ISS (ZARYA)",
		OBJECT_ID: "1998-067A",
		EPOCH: "2026-06-25T12:14:30.024672",
		MEAN_MOTION: "15.49422389",
		ECCENTRICITY: "0.00043690",
		INCLINATION: "51.6326",
		RA_OF_ASC_NODE: "258.8948",
		ARG_OF_PERICENTER: "230.1925",
		MEAN_ANOMALY: "129.8679",
		BSTAR: "0.00018376000000",
		REV_AT_EPOCH: "57304",
	},
	{
		NORAD_CAT_ID: "25544",
		OBJECT_NAME: "ISS (ZARYA)",
		OBJECT_ID: "1998-067A",
		EPOCH: "2026-06-25T12:14:30.025536",
		MEAN_MOTION: "15.49422389",
		ECCENTRICITY: "0.00043691",
		INCLINATION: "51.6326",
		RA_OF_ASC_NODE: "258.8948",
		ARG_OF_PERICENTER: "230.1925",
		MEAN_ANOMALY: "129.8680",
		BSTAR: "0.00018376191000",
		REV_AT_EPOCH: "57304",
	},
	{
		NORAD_CAT_ID: "25544",
		OBJECT_NAME: "ISS (ZARYA)",
		OBJECT_ID: "1998-067A",
		EPOCH: "2026-06-25T16:53:07.787904",
		MEAN_MOTION: "15.49425151",
		ECCENTRICITY: "0.00043760",
		INCLINATION: "51.6325",
		RA_OF_ASC_NODE: "257.9368",
		ARG_OF_PERICENTER: "231.2480",
		MEAN_ANOMALY: "128.8118",
		BSTAR: "0.00017567000000",
		REV_AT_EPOCH: "57307",
	},
	{
		NORAD_CAT_ID: "25544",
		OBJECT_NAME: "ISS (ZARYA)",
		OBJECT_ID: "1998-067A",
		EPOCH: "2026-06-26T03:43:15.671136",
		MEAN_MOTION: "15.49434804",
		ECCENTRICITY: "0.00043588",
		INCLINATION: "51.6325",
		RA_OF_ASC_NODE: "255.7018",
		ARG_OF_PERICENTER: "233.1468",
		MEAN_ANOMALY: "126.9121",
		BSTAR: "0.00017696555000",
		REV_AT_EPOCH: "57314",
	},
	{
		NORAD_CAT_ID: "25544",
		OBJECT_NAME: "ISS (ZARYA)",
		OBJECT_ID: "1998-067A",
		EPOCH: "2026-06-26T03:43:15.671136",
		MEAN_MOTION: "15.49434803",
		ECCENTRICITY: "0.00043590",
		INCLINATION: "51.6325",
		RA_OF_ASC_NODE: "255.7018",
		ARG_OF_PERICENTER: "233.1468",
		MEAN_ANOMALY: "126.9121",
		BSTAR: "0.00017697000000",
		REV_AT_EPOCH: "57314",
	},
	{
		NORAD_CAT_ID: "25544",
		OBJECT_NAME: "ISS (ZARYA)",
		OBJECT_ID: "1998-067A",
		EPOCH: "2026-06-26T11:27:38.362176",
		MEAN_MOTION: "15.49438531",
		ECCENTRICITY: "0.00043091",
		INCLINATION: "51.6324",
		RA_OF_ASC_NODE: "254.1055",
		ARG_OF_PERICENTER: "234.2414",
		MEAN_ANOMALY: "125.8174",
		BSTAR: "0.00015018834000",
		REV_AT_EPOCH: "57319",
	},
	{
		NORAD_CAT_ID: "25544",
		OBJECT_NAME: "ISS (ZARYA)",
		OBJECT_ID: "1998-067A",
		EPOCH: "2026-06-26T11:27:38.362176",
		MEAN_MOTION: "15.49438531",
		ECCENTRICITY: "0.00043090",
		INCLINATION: "51.6324",
		RA_OF_ASC_NODE: "254.1054",
		ARG_OF_PERICENTER: "234.2414",
		MEAN_ANOMALY: "125.8174",
		BSTAR: "0.00015019000000",
		REV_AT_EPOCH: "57319",
	},
	{
		NORAD_CAT_ID: "25544",
		OBJECT_NAME: "ISS (ZARYA)",
		OBJECT_ID: "1998-067A",
		EPOCH: "2026-06-26T16:06:15.917184",
		MEAN_MOTION: "15.49442433",
		ECCENTRICITY: "0.00042994",
		INCLINATION: "51.6322",
		RA_OF_ASC_NODE: "253.1475",
		ARG_OF_PERICENTER: "235.1263",
		MEAN_ANOMALY: "124.9322",
		BSTAR: "0.00015268082000",
		REV_AT_EPOCH: "57322",
	},
	{
		NORAD_CAT_ID: "25544",
		OBJECT_NAME: "ISS (ZARYA)",
		OBJECT_ID: "1998-067A",
		EPOCH: "2026-06-27T04:29:15.881568",
		MEAN_MOTION: "15.49451091",
		ECCENTRICITY: "0.00042860",
		INCLINATION: "51.6321",
		RA_OF_ASC_NODE: "250.5931",
		ARG_OF_PERICENTER: "237.0870",
		MEAN_ANOMALY: "122.9706",
		BSTAR: "0.00014139000000",
		REV_AT_EPOCH: "57330",
	},
	{
		NORAD_CAT_ID: "25544",
		OBJECT_NAME: "ISS (ZARYA)",
		OBJECT_ID: "1998-067A",
		EPOCH: "2026-06-27T06:02:08.359296",
		MEAN_MOTION: "15.49452150",
		ECCENTRICITY: "0.00042843",
		INCLINATION: "51.6322",
		RA_OF_ASC_NODE: "250.2737",
		ARG_OF_PERICENTER: "237.3448",
		MEAN_ANOMALY: "122.7128",
		BSTAR: "0.00014015541000",
		REV_AT_EPOCH: "57331",
	},
	{
		NORAD_CAT_ID: "25544",
		OBJECT_NAME: "ISS (ZARYA)",
		OBJECT_ID: "1998-067A",
		EPOCH: "2026-06-27T12:13:38.285760",
		MEAN_MOTION: "15.49454046",
		ECCENTRICITY: "0.00042780",
		INCLINATION: "51.6322",
		RA_OF_ASC_NODE: "248.9966",
		ARG_OF_PERICENTER: "238.4942",
		MEAN_ANOMALY: "121.5629",
		BSTAR: "0.00012016000000",
		REV_AT_EPOCH: "57335",
	},
	{
		NORAD_CAT_ID: "25544",
		OBJECT_NAME: "ISS (ZARYA)",
		OBJECT_ID: "1998-067A",
		EPOCH: "2026-06-27T16:52:15.689568",
		MEAN_MOTION: "15.49456407",
		ECCENTRICITY: "0.00042610",
		INCLINATION: "51.6321",
		RA_OF_ASC_NODE: "248.0384",
		ARG_OF_PERICENTER: "239.2483",
		MEAN_ANOMALY: "120.8086",
		BSTAR: "0.00011337000000",
		REV_AT_EPOCH: "57338",
	},
	{
		NORAD_CAT_ID: "25544",
		OBJECT_NAME: "ISS (ZARYA)",
		OBJECT_ID: "1998-067A",
		EPOCH: "2026-06-27T16:52:15.690432",
		MEAN_MOTION: "15.49456407",
		ECCENTRICITY: "0.00042612",
		INCLINATION: "51.6321",
		RA_OF_ASC_NODE: "248.0384",
		ARG_OF_PERICENTER: "239.2483",
		MEAN_ANOMALY: "120.8086",
		BSTAR: "0.00011337238000",
		REV_AT_EPOCH: "57338",
	},
	{
		NORAD_CAT_ID: "25544",
		OBJECT_NAME: "ISS (ZARYA)",
		OBJECT_ID: "1998-067A",
		EPOCH: "2026-06-28T03:42:22.848768",
		MEAN_MOTION: "15.49462531",
		ECCENTRICITY: "0.00042570",
		INCLINATION: "51.6320",
		RA_OF_ASC_NODE: "245.8034",
		ARG_OF_PERICENTER: "241.1666",
		MEAN_ANOMALY: "118.8896",
		BSTAR: "0.00011238000000",
		REV_AT_EPOCH: "57345",
	},
	{
		NORAD_CAT_ID: "25544",
		OBJECT_NAME: "ISS (ZARYA)",
		OBJECT_ID: "1998-067A",
		EPOCH: "2026-06-28T03:42:22.849632",
		MEAN_MOTION: "15.49462531",
		ECCENTRICITY: "0.00042575",
		INCLINATION: "51.6320",
		RA_OF_ASC_NODE: "245.8034",
		ARG_OF_PERICENTER: "241.1666",
		MEAN_ANOMALY: "118.8896",
		BSTAR: "0.00011237826000",
		REV_AT_EPOCH: "57345",
	},
	{
		NORAD_CAT_ID: "25544",
		OBJECT_NAME: "ISS (ZARYA)",
		OBJECT_ID: "1998-067A",
		EPOCH: "2026-06-28T12:59:37.480128",
		MEAN_MOTION: "15.49467065",
		ECCENTRICITY: "0.00042596",
